TRANSPORTER-10 OBJECT AD
1 59125U 24043AD  26068.86032889  .00011954  00000+0  36311-3 0  9997
2 59125  97.5470 207.3753 0008984 221.4908 138.5653 15.34189901112026
CUAVA-2                 
1 60527U 24149BM  26068.46955133  .00015400  00000+0  47570-3 0  9993
2 60527  97.3769 149.9859 0005669 291.2139  68.8497 15.33611708 86877
